STARLINK-4718           
1 53773U 22111A   22266.58334491  .00026933  00000+0  19586-3 0  9991
2 53773  53.2157 205.1273 0001094 112.8546  66.5615 15.73180508  1302
STARLINK-4719           
1 53774U 22111B   22266.58334491  .00008916  00000+0  67876-4 0  9999
2 53774  53.2161 205.1263 0001032 112.9966  67.0021 15.73199497  1300
STARLINK-4722           
1 53775U 22111C   22266.58334491 -.00008574  00000+0 -56754-4 0  9995
2 53775  53.2159 205.1217 0001242 107.8347  73.9305 15.73192539  1903
STARLINK-4708           
1 53776U 22111D   22266.58334491  .00047363  00000+0  33983-3 0  9991
2 53776  53.2159 205.1249 0001098 115.0887  65.4668 15.73210501  1300
STARLINK-4664           
1 53777U 22111E   22266.58334491  .00049905  00000+0  35792-3 0  9996
2 53777  53.2158 205.1205 0001105 109.3603  73.6077 15.73197655  1908
STARLINK-4709           
1 53778U 22111F   22266.58334491  .00023228  00000+0  16967-3 0  9990
2 53778  53.2155 205.1237 0000885 115.1603  66.0540 15.73170435  1302
STARLINK-4706           
1 53779U 22111G   22266.58334491  .00028722  00000+0  20849-3 0  9999
2 53779  53.2162 205.1186 0001378 109.0611  74.5178 15.73185350  1306
STARLINK-4678           
1 53780U 22111H   22266.58334491  .00046448  00000+0  33355-3 0  9992
2 53780  53.2171 205.1220 0000978 113.1803  69.1884 15.73198756  1905
STARLINK-4462           
1 53781U 22111J   22266.58334491  .00029190  00000+0  21109-3 0  9992
2 53781  53.2173 205.1153 0001347 118.7537  66.8358 15.73264921  1301
STARLINK-4679           
1 53782U 22111K   22266.58334491 -.00034650  00000+0 -24274-3 0  9998
2 53782  53.2173 205.1177 0001272 117.4391  66.8596 15.73270991  1903
STARLINK-4536           
1 53783U 22111L   22266.58334491  .00029572  00000+0  21309-3 0  9990
2 53783  53.2172 205.1130 0001881 105.3510  81.4512 15.73341073  1908
STARLINK-4687           
1 53784U 22111M   22266.58334491  .00006485  00000+0  50453-4 0  9992
2 53784  53.2170 205.1159 0001481 110.3400  74.6506 15.73263661  1305
STARLINK-4638           
1 53785U 22111N   22266.58334491  .00094160  00000+0  44006-3 0  9996
2 53785  53.2042 204.5721 0006372 300.6331 146.9375 15.82515682  1303
STARLINK-4631           
1 53786U 22111P   22266.58334491  .00045039  00000+0  32283-3 0  9992
2 53786  53.2161 205.1134 0001139 126.9249  59.1732 15.73256093  1900
STARLINK-4743           
1 53787U 22111Q   22266.58334491 -.00011113  00000+0 -74540-4 0  9994
2 53787  53.2172 205.1075 0001170 137.4366  51.4879 15.73301803  1906
STARLINK-4744           
1 53788U 22111R   22266.58334491  .00097890  00000+0  45648-3 0  9995
2 53788  53.2045 204.5718 0006374 300.2180 147.5739 15.82547792  1303
STARLINK-4666           
1 53789U 22111S   22266.58334491  .00045424  00000+0  32641-3 0  9991
2 53789  53.2166 205.1056 0001224 108.0470  82.0785 15.73193525  1906
STARLINK-4734           
1 53790U 22111T   22266.58334491  .00047747  00000+0  34478-3 0  9993
2 53790  53.2168 205.1101 0000612  70.1026 118.0862 15.73057180  1909
STARLINK U              
1 53791U 22111U   22266.44156347  .00099127  00000+0  46368-3 0  9991
2 53791  53.2043 205.2829 0006488 304.1176  55.9233 15.82475598  1967
STARLINK-4739           
1 53792U 22111V   22266.58334491  .00011780  00000+0  88147-4 0  9996
2 53792  53.2169 205.1070 0001255 103.7112  85.8131 15.73222841  1908
STARLINK-4728           
1 53793U 22111W   22266.58334491 -.00025923  00000+0 -18068-3 0  9997
2 53793  53.2172 205.1035 0001209 110.8840  80.4250 15.73222840  1306
STARLINK-4730           
1 53794U 22111X   22266.58334491 -.00028820  00000+0 -20145-3 0  9996
2 53794  53.2163 205.1040 0001255 109.6930  81.0159 15.73220745  1903
STARLINK-4742           
1 53795U 22111Y   22266.58334491 -.00005417  00000+0 -34208-4 0  9990
2 53795  53.2167 205.1025 0001280 109.2939  82.6126 15.73196710  1303
STARLINK Z              
1 53796U 22111Z   22266.44121714  .00100821  00000+0  46904-3 0  9996
2 53796  53.2039 205.2808 0006294 308.4393  51.6065 15.82587169  2726
STARLINK-4723           
1 53797U 22111AA  22266.58334491 -.00030669  00000+0 -21472-3 0  9997
2 53797  53.2172 205.0999 0001099 111.6022  81.4955 15.73219355  1306
STARLINK-4712           
1 53798U 22111AB  22266.58334491 -.00024699  00000+0 -17192-3 0  9998
2 53798  53.2158 205.1008 0001039 101.6192  90.8634 15.73222346  1890
STARLINK-4710           
1 53799U 22111AC  22266.58334491 -.00008963  00000+0 -59547-4 0  9996
2 53799  53.2171 205.0977 0001205 100.6771  93.6336 15.73188499  1303
STARLINK-4720           
1 53800U 22111AD  22266.58334491 -.00005316  00000+0 -33497-4 0  9994
2 53800  53.2173 205.0984 0001302 104.1338  89.5687 15.73192021  1301
STARLINK-4715           
1 53801U 22111AE  22266.58334491  .00007913  00000+0  60688-4 0  9990
2 53801  53.2162 205.0951 0001088 104.1916  91.3055 15.73222609  1303
STARLINK-4726           
1 53802U 22111AF  22266.58334491 -.00032509  00000+0 -22792-3 0  9995
2 53802  53.2168 205.0961 0001254 105.0659  89.8291 15.73218611  1896
STARLINK-4727           
1 53803U 22111AG  22266.58334491 -.00016550  00000+0 -11369-3 0  9992
2 53803  53.2159 205.0919 0001064 101.1362  95.5383 15.73209716  1305
STARLINK-4729           
1 53804U 22111AH  22266.58334491 -.00014920  00000+0 -10206-3 0  9991
2 53804  53.2164 205.0933 0001132  97.5245  98.5605 15.73203922  1305
STARLINK-4763           
1 53805U 22111AJ  22266.58334491  .00048117  00000+0  34542-3 0  9994
2 53805  53.2159 205.0905 0001251  94.4770 102.8054 15.73191313  1891
STARLINK-4768           
1 53806U 22111AK  22266.58334491  .00032365  00000+0  23415-3 0  9990
2 53806  53.2174 205.0905 0001048  92.9950 104.8640 15.73197944  1895
BLUEWALKER-3            
1 53807U 22111AL  22266.22932216  .00000807  00000+0  54234-4 0  9991
2 53807  53.2033 211.8416 0011840 327.0574  32.9683 15.18334798  1861
FALCON 9 DEB            
1 53808U 22111AM  22266.55878449  .00220846  00000+0  89933-3 0  9995
2 53808  53.2040 204.5876 0005754 279.9538  80.0838 15.85030476  1980
FALCON 9 DEB            
1 53809U 22111AN  22266.55963438  .00143353  00000+0  61904-3 0  9994
2 53809  53.2009 204.5924 0006153 321.5596  38.4990 15.84020209  3038
FALCON 9 DEB            
1 53810U 22111AP  22266.24067356  .00158284  00000+0  66350-3 0  9995
2 53810  53.2017 206.1547 0009100 309.3215  50.7002 15.84565268  1932
FALCON 9 DEB            
1 53811U 22111AQ  22266.31754202  .00139442  00000+0  64456-3 0  9997
2 53811  53.1975 205.9293 0004835 269.6475  90.3995 15.82599168  1942
FALCON 9 DEB            
1 53812U 22111AR  22266.25312102  .00119121  00000+0  55270-3 0  9996
2 53812  53.1986 206.2383 0007437 278.2310  81.7871 15.82564750  1939
CHINASAT 1E (ZX 1E)     
1 53813U 22112A   22266.56229882 -.00000155  00000+0  00000+0 0  9998
2 53813   1.5004 280.3013 0002514 252.3154 113.6189  1.00272406   194
2022-112B               
1 53814U 22112B   22266.25007648  .02263393  12205-4  17435-2 0  9993
2 53814  13.9269 208.5994 7043910 181.4867 169.1989  2.66907694   214
STRIX-1                 
1 53815U 22113A   22266.42733560  .00003326  00000+0  27307-3 0  9994
2 53815  97.6590 317.2414 0012176 276.8366  83.1464 14.99832720  1133
ELECTRON R/B            
1 53816U 22113B   22266.52594530  .02257459  22845-5  12233-2 0  9996
2 53816  97.6484 318.2276 0209122 199.4360 159.8992 15.86806182  1201
ELECTRON KICK STAGE R/B 
1 53817U 22113C   22266.62539182  .00003466  00000+0  28129-3 0  9990
2 53817  97.6578 317.4413 0012835 269.4973  90.4779 15.00241207  1166
2022-114A               
1 53818U 22114A   22266.66667824 -.01217406  42005-3 -42707-2 0  9997
2 53818  53.2174 236.2277 0031197  55.2675  30.6509 15.87728088  1300
2022-114B               
1 53819U 22114B   22266.66667824 -.01261043  44830-3 -43963-2 0  9997
2 53819  53.2173 236.2244 0031583  55.3286  31.8658 15.87838210  1309
2022-114C               
1 53820U 22114C   22266.66667824 -.01216243  41937-3 -42603-2 0  9996
2 53820  53.2173 236.2272 0031490  55.4748  30.7551 15.87741513  1302
2022-114D               
1 53821U 22114D   22266.66667824 -.01258930  44686-3 -43990-2 0  9990
2 53821  53.2173 236.2252 0031093  55.0678  31.8966 15.87818877  1308
2022-114E               
1 53822U 22114E   22266.66667824  .00377409  71343-4  54703-3 0  9997
2 53822  53.2152 236.0658 0071908  61.7071 100.5404 15.99619744  1300
2022-114F               
1 53823U 22114F   22266.66667824 -.01096842  38065-3 -20038-2 0  9996
2 53823  53.2175 236.0813 0061571  59.5501  98.2722 15.97048590  1306
2022-114G               
1 53824U 22114G   22266.66667824 -.01289539  46715-3 -44809-2 0  9997
2 53824  53.2175 236.2248 0031883  55.5009  32.1461 15.87891695  1301
2022-114H               
1 53825U 22114H   22266.66667824 -.01262812  44953-3 -43954-2 0  9995
2 53825  53.2174 236.2244 0031828  55.4989  31.9293 15.87856947  1303
2022-114J               
1 53826U 22114J   22266.66667824 -.01276141  45861-3 -44288-2 0  9996
2 53826  53.2174 236.2226 0031156  55.0662  33.5386 15.87953542  1302
2022-114K               
1 53827U 22114K   22266.66667824 -.01255893  44518-3 -43639-2 0  9995
2 53827  53.2173 236.2235 0031848  55.4791  32.4217 15.87888254  1305
2022-114L               
1 53828U 22114L   22266.66667824 -.01216476  42026-3 -42192-2 0  9995
2 53828  53.2174 236.2222 0031531  55.1989  33.6578 15.87934947  1302
2022-114M               
1 53829U 22114M   22266.66667824 -.01140541  37344-3 -39663-2 0  9991
2 53829  53.2174 236.2232 0032150  56.8635  31.3220 15.87835567  1305
2022-114N               
1 53830U 22114N   22266.66667824 -.01208287  41524-3 -41803-2 0  9999
2 53830  53.2174 236.2212 0031878  55.4456  33.9056 15.87964162  1306
2022-114P               
1 53831U 22114P   22266.66667824 -.01231477  42963-3 -42639-2 0  9993
2 53831  53.2174 236.2228 0032683  55.6591  32.7331 15.87907917  1309
